[{"OBJECT_NAME":"STARLINK-34885","OBJECT_ID":"2025-189F","EPOCH":"2026-03-09T16:08:44.062080","MEAN_MOTION":15.3019596,"ECCENTRICITY":9.665e-5,"INCLINATION":53.1575,"RA_OF_ASC_NODE":206.8608,"ARG_OF_PERICENTER":93.0634,"MEAN_ANOMALY":267.0477,"EPHEMERIS_TYPE":0,"CLASSIFICATION_TYPE":"U","NORAD_CAT_ID":65328,"ELEMENT_SET_NO":999,"REV_AT_EPOCH":3104,"BSTAR":0.00080553649,"MEAN_MOTION_DOT":0.00023571,"MEAN_MOTION_DDOT":0},{"OBJECT_NAME":"KUIPER-00175","OBJECT_ID":"2025-301C","EPOCH":"2026-03-09T23:30:37.840032","MEAN_MOTION":15.30996371,"ECCENTRICITY":0.00022792,"INCLINATION":51.8781,"RA_OF_ASC_NODE":63.6978,"ARG_OF_PERICENTER":50.5695,"MEAN_ANOMALY":309.549,"EPHEMERIS_TYPE":0,"CLASSIFICATION_TYPE":"U","NORAD_CAT_ID":67135,"ELEMENT_SET_NO":999,"REV_AT_EPOCH":1385,"BSTAR":0.00066732304,"MEAN_MOTION_DOT":0.00019968,"MEAN_MOTION_DDOT":0}]
